latitude,longitude,tags,street_name
43.7211779,10.3914214,"{'highway': 'residential', 'lit': 'yes', 'maxspeed:type': 'IT:urban', 'name': 'Via Giunta Pisano', 'name:etymology:wikidata': 'Q975500', 'oneway': 'yes', 'parking:both': 'street_side', 'parking:both:fee': 'yes', 'parking:both:orientation': 'parallel', 'surface': 'asphalt'}",Via Giunta Pisano
43.7212048,10.3913359,"{'highway': 'residential', 'lit': 'yes', 'maxspeed:type': 'IT:urban', 'name': 'Via Giunta Pisano', 'name:etymology:wikidata': 'Q975500', 'oneway': 'yes', 'parking:both': 'street_side', 'parking:both:fee': 'yes', 'parking:both:orientation': 'parallel', 'surface': 'asphalt'}",Via Giunta Pisano
43.7217905,10.3894112,"{'highway': 'residential', 'lit': 'yes', 'maxspeed:type': 'IT:urban', 'name': 'Via Giunta Pisano', 'name:etymology:wikidata': 'Q975500', 'oneway': 'yes', 'parking:both': 'street_side', 'parking:both:fee': 'yes', 'parking:both:orientation': 'parallel', 'surface': 'asphalt'}",Via Giunta Pisano
43.7221479,10.3882131,"{'highway': 'residential', 'maxspeed:type': 'IT:urban', 'name': 'Via Diotisalvi', 'name:etymology:wikidata': 'Q763522', 'oneway': 'yes', 'surface': 'asphalt'}",Via Diotisalvi
43.7219462,10.3881694,"{'highway': 'residential', 'maxspeed:type': 'IT:urban', 'name': 'Via Diotisalvi', 'name:etymology:wikidata': 'Q763522', 'oneway': 'yes', 'surface': 'asphalt'}",Via Diotisalvi
43.7211679,10.3880796,"{'highway': 'residential', 'maxspeed:type': 'IT:urban', 'name': 'Via Diotisalvi', 'name:etymology:wikidata': 'Q763522', 'oneway': 'yes', 'surface': 'asphalt'}",Via Diotisalvi
43.7228292,10.3922295,"{'highway': 'residential', 'lit': 'yes', 'maxspeed:type': 'IT:urban', 'name': 'Via Andrea Pisano', 'name:etymology:wikidata': 'Q311031', 'oneway': 'yes', 'parking:both': 'street_side', 'parking:both:fee': 'yes', 'parking:both:orientation': 'parallel', 'surface': 'asphalt'}",Via Andrea Pisano
43.7228299,10.3920894,"{'highway': 'residential', 'lit': 'yes', 'maxspeed:type': 'IT:urban', 'name': 'Via Andrea Pisano', 'name:etymology:wikidata': 'Q311031', 'oneway': 'yes', 'parking:both': 'street_side', 'parking:both:fee': 'yes', 'parking:both:orientation': 'parallel', 'surface': 'asphalt'}",Via Andrea Pisano
43.7228482,10.3906559,"{'highway': 'residential', 'lit': 'yes', 'maxspeed:type': 'IT:urban', 'name': 'Via Andrea Pisano', 'name:etymology:wikidata': 'Q311031', 'oneway': 'yes', 'parking:both': 'street_side', 'parking:both:fee': 'yes', 'parking:both:orientation': 'parallel', 'surface': 'asphalt'}",Via Andrea Pisano
43.7228531,10.3898198,"{'highway': 'residential', 'lit': 'yes', 'maxspeed:type': 'IT:urban', 'name': 'Via Andrea Pisano', 'name:etymology:wikidata': 'Q311031', 'oneway': 'yes', 'parking:both': 'street_side', 'parking:both:fee': 'yes', 'parking:both:orientation': 'parallel', 'surface': 'asphalt'}",Via Andrea Pisano
43.722851,10.3896863,"{'highway': 'residential', 'lit': 'yes', 'maxspeed:type': 'IT:urban', 'name': 'Via Andrea Pisano', 'name:etymology:wikidata': 'Q311031', 'oneway': 'yes', 'parking:both': 'street_side', 'parking:both:fee': 'yes', 'parking:both:orientation': 'parallel', 'surface': 'asphalt'}",Via Andrea Pisano
43.7228368,10.3895119,"{'highway': 'residential', 'lit': 'yes', 'maxspeed:type': 'IT:urban', 'name': 'Via Andrea Pisano', 'name:etymology:wikidata': 'Q311031', 'oneway': 'yes', 'parking:both': 'street_side', 'parking:both:fee': 'yes', 'parking:both:orientation': 'parallel', 'surface': 'asphalt'}",Via Andrea Pisano
43.7222994,10.3884052,"{'highway': 'residential', 'lit': 'yes', 'maxspeed:type': 'IT:urban', 'name': 'Via Andrea Pisano', 'name:etymology:wikidata': 'Q311031', 'oneway': 'yes', 'parking:both': 'street_side', 'parking:both:fee': 'yes', 'parking:both:orientation': 'parallel', 'surface': 'asphalt'}",Via Andrea Pisano
43.7222722,10.3883581,"{'highway': 'residential', 'lit': 'yes', 'maxspeed:type': 'IT:urban', 'name': 'Via Andrea Pisano', 'name:etymology:wikidata': 'Q311031', 'oneway': 'yes', 'parking:both': 'street_side', 'parking:both:fee': 'yes', 'parking:both:orientation': 'parallel', 'surface': 'asphalt'}",Via Andrea Pisano
43.7222431,10.388319,"{'highway': 'residential', 'lit': 'yes', 'maxspeed:type': 'IT:urban', 'name': 'Via Andrea Pisano', 'name:etymology:wikidata': 'Q311031', 'oneway': 'yes', 'parking:both': 'street_side', 'parking:both:fee': 'yes', 'parking:both:orientation': 'parallel', 'surface': 'asphalt'}",Via Andrea Pisano
43.7221705,10.388237,"{'highway': 'residential', 'lit': 'yes', 'maxspeed:type': 'IT:urban', 'name': 'Via Andrea Pisano', 'name:etymology:wikidata': 'Q311031', 'oneway': 'yes', 'parking:both': 'street_side', 'parking:both:fee': 'yes', 'parking:both:orientation': 'parallel', 'surface': 'asphalt'}",Via Andrea Pisano
43.7221479,10.3882131,"{'highway': 'residential', 'lit': 'yes', 'maxspeed:type': 'IT:urban', 'name': 'Via Andrea Pisano', 'name:etymology:wikidata': 'Q311031', 'oneway': 'yes', 'parking:both': 'street_side', 'parking:both:fee': 'yes', 'parking:both:orientation': 'parallel', 'surface': 'asphalt'}",Via Andrea Pisano
43.7156025,10.3949766,"{'highway': 'residential', 'lanes': '3', 'lanes:backward': '1', 'lanes:bus:backward': '1', 'lanes:forward': '1', 'maxspeed': '30', 'name': 'Piazza Solferino', 'oneway': 'no', 'sidewalk:left': 'separate', 'sidewalk:right': 'yes', 'source:width': 'satellite image', 'surface': 'asphalt', 'turn:lanes:backward': 'left;through|right', 'width': '13'}",Piazza Solferino
43.7157259,10.3948989,"{'highway': 'residential', 'lanes': '3', 'lanes:backward': '1', 'lanes:bus:backward': '1', 'lanes:forward': '1', 'maxspeed': '30', 'name': 'Piazza Solferino', 'oneway': 'no', 'sidewalk:left': 'separate', 'sidewalk:right': 'yes', 'source:width': 'satellite image', 'surface': 'asphalt', 'turn:lanes:backward': 'left;through|right', 'width': '13'}",Piazza Solferino
43.7161567,10.394714,"{'highway': 'residential', 'lanes': '3', 'lanes:backward': '1', 'lanes:bus:backward': '1', 'lanes:forward': '1', 'maxspeed': '30', 'name': 'Piazza Solferino', 'oneway': 'no', 'sidewalk:left': 'separate', 'sidewalk:right': 'yes', 'source:width': 'satellite image', 'surface': 'asphalt', 'turn:lanes:backward': 'left;through|right', 'width': '13'}",Piazza Solferino
43.7170206,10.3916516,"{'bicycle': 'yes', 'highway': 'residential', 'maxspeed': '30', 'name': 'Via Nicola Pisano', 'name:etymology:wikidata': 'Q364413', 'oneway': 'yes', 'surface': 'asphalt'}",Via Nicola Pisano
43.7169538,10.39164,"{'bicycle': 'yes', 'highway': 'residential', 'maxspeed': '30', 'name': 'Via Nicola Pisano', 'name:etymology:wikidata': 'Q364413', 'oneway': 'yes', 'surface': 'asphalt'}",Via Nicola Pisano
43.7168775,10.3916133,"{'bicycle': 'yes', 'highway': 'residential', 'maxspeed': '30', 'name': 'Via Nicola Pisano', 'name:etymology:wikidata': 'Q364413', 'oneway': 'yes', 'surface': 'asphalt'}",Via Nicola Pisano
43.7166977,10.3915433,"{'bicycle': 'yes', 'highway': 'residential', 'maxspeed': '30', 'name': 'Via Nicola Pisano', 'name:etymology:wikidata': 'Q364413', 'oneway': 'yes', 'surface': 'asphalt'}",Via Nicola Pisano
43.7166098,10.3915303,"{'bicycle': 'yes', 'highway': 'residential', 'maxspeed': '30', 'name': 'Via Nicola Pisano', 'name:etymology:wikidata': 'Q364413', 'oneway': 'yes', 'surface': 'asphalt'}",Via Nicola Pisano
43.7165557,10.3915297,"{'bicycle': 'yes', 'highway': 'residential', 'maxspeed': '30', 'name': 'Via Nicola Pisano', 'name:etymology:wikidata': 'Q364413', 'oneway': 'yes', 'surface': 'asphalt'}",Via Nicola Pisano
43.716475,10.3915234,"{'bicycle': 'yes', 'highway': 'residential', 'maxspeed': '30', 'name': 'Via Nicola Pisano', 'name:etymology:wikidata': 'Q364413', 'oneway': 'yes', 'surface': 'asphalt'}",Via Nicola Pisano
43.7161034,10.3914941,"{'bicycle': 'yes', 'highway': 'residential', 'maxspeed': '30', 'name': 'Via Nicola Pisano', 'name:etymology:wikidata': 'Q364413', 'oneway': 'yes', 'surface': 'asphalt'}",Via Nicola Pisano
43.7159192,10.3914736,"{'bicycle': 'yes', 'highway': 'residential', 'maxspeed': '30', 'name': 'Via Nicola Pisano', 'name:etymology:wikidata': 'Q364413', 'oneway': 'yes', 'surface': 'asphalt'}",Via Nicola Pisano
43.7153964,10.3913606,"{'bicycle': 'yes', 'highway': 'residential', 'maxspeed': '30', 'name': 'Via Nicola Pisano', 'name:etymology:wikidata': 'Q364413', 'oneway': 'yes', 'surface': 'asphalt'}",Via Nicola Pisano
43.7153562,10.3913519,"{'bicycle': 'yes', 'highway': 'residential', 'maxspeed': '30', 'name': 'Via Nicola Pisano', 'name:etymology:wikidata': 'Q364413', 'oneway': 'yes', 'surface': 'asphalt'}",Via Nicola Pisano
43.7143242,10.3911249,"{'bicycle': 'yes', 'highway': 'residential', 'maxspeed': '30', 'name': 'Via Nicola Pisano', 'name:etymology:wikidata': 'Q364413', 'oneway': 'yes', 'surface': 'asphalt'}",Via Nicola Pisano
43.7142979,10.3911105,"{'bicycle': 'yes', 'highway': 'residential', 'maxspeed': '30', 'name': 'Via Nicola Pisano', 'name:etymology:wikidata': 'Q364413', 'oneway': 'yes', 'surface': 'asphalt'}",Via Nicola Pisano
43.7142738,10.3910945,"{'bicycle': 'yes', 'highway': 'residential', 'maxspeed': '30', 'name': 'Via Nicola Pisano', 'name:etymology:wikidata': 'Q364413', 'oneway': 'yes', 'surface': 'asphalt'}",Via Nicola Pisano
43.7142549,10.391075,"{'bicycle': 'yes', 'highway': 'residential', 'maxspeed': '30', 'name': 'Via Nicola Pisano', 'name:etymology:wikidata': 'Q364413', 'oneway': 'yes', 'surface': 'asphalt'}",Via Nicola Pisano
43.714238,10.3910518,"{'bicycle': 'yes', 'highway': 'residential', 'maxspeed': '30', 'name': 'Via Nicola Pisano', 'name:etymology:wikidata': 'Q364413', 'oneway': 'yes', 'surface': 'asphalt'}",Via Nicola Pisano
43.7142187,10.3910206,"{'bicycle': 'yes', 'highway': 'residential', 'maxspeed': '30', 'name': 'Via Nicola Pisano', 'name:etymology:wikidata': 'Q364413', 'oneway': 'yes', 'surface': 'asphalt'}",Via Nicola Pisano
43.7141894,10.3909512,"{'bicycle': 'yes', 'highway': 'residential', 'maxspeed': '30', 'name': 'Via Nicola Pisano', 'name:etymology:wikidata': 'Q364413', 'oneway': 'yes', 'surface': 'asphalt'}",Via Nicola Pisano
43.7141144,10.3907585,"{'bicycle': 'yes', 'highway': 'residential', 'maxspeed': '30', 'name': 'Via Nicola Pisano', 'name:etymology:wikidata': 'Q364413', 'oneway': 'yes', 'surface': 'asphalt'}",Via Nicola Pisano
43.7140821,10.3906849,"{'bicycle': 'yes', 'highway': 'residential', 'maxspeed': '30', 'name': 'Via Nicola Pisano', 'name:etymology:wikidata': 'Q364413', 'oneway': 'yes', 'surface': 'asphalt'}",Via Nicola Pisano
43.7181759,10.3894504,"{'highway': 'residential', 'lanes': '2', 'lanes:forward': '1', 'lanes:psv:backward': '1', 'maxspeed': '30', 'name': 'Via Rustichello da Pisa', 'name:etymology:wikidata': 'Q366741', 'oneway': 'yes', 'oneway:psv': 'no', 'surface': 'asphalt'}",Via Rustichello da Pisa
43.7181563,10.3895194,"{'highway': 'residential', 'lanes': '2', 'lanes:forward': '1', 'lanes:psv:backward': '1', 'maxspeed': '30', 'name': 'Via Rustichello da Pisa', 'name:etymology:wikidata': 'Q366741', 'oneway': 'yes', 'oneway:psv': 'no', 'surface': 'asphalt'}",Via Rustichello da Pisa
43.7181507,10.3895351,"{'highway': 'residential', 'lanes': '2', 'lanes:forward': '1', 'lanes:psv:backward': '1', 'maxspeed': '30', 'name': 'Via Rustichello da Pisa', 'name:etymology:wikidata': 'Q366741', 'oneway': 'yes', 'oneway:psv': 'no', 'surface': 'asphalt'}",Via Rustichello da Pisa
43.7181224,10.3896372,"{'highway': 'residential', 'lanes': '2', 'lanes:forward': '1', 'lanes:psv:backward': '1', 'maxspeed': '30', 'name': 'Via Rustichello da Pisa', 'name:etymology:wikidata': 'Q366741', 'oneway': 'yes', 'oneway:psv': 'no', 'surface': 'asphalt'}",Via Rustichello da Pisa
43.7179804,10.3901673,"{'highway': 'residential', 'lanes': '2', 'lanes:forward': '1', 'lanes:psv:backward': '1', 'maxspeed': '30', 'name': 'Via Rustichello da Pisa', 'name:etymology:wikidata': 'Q366741', 'oneway': 'yes', 'oneway:psv': 'no', 'surface': 'asphalt'}",Via Rustichello da Pisa
43.7178332,10.3906881,"{'highway': 'residential', 'lanes': '2', 'lanes:forward': '1', 'lanes:psv:backward': '1', 'maxspeed': '30', 'name': 'Via Rustichello da Pisa', 'name:etymology:wikidata': 'Q366741', 'oneway': 'yes', 'oneway:psv': 'no', 'surface': 'asphalt'}",Via Rustichello da Pisa
43.7178037,10.3907733,"{'highway': 'residential', 'lanes': '2', 'lanes:forward': '1', 'lanes:psv:backward': '1', 'maxspeed': '30', 'name': 'Via Rustichello da Pisa', 'name:etymology:wikidata': 'Q366741', 'oneway': 'yes', 'oneway:psv': 'no', 'surface': 'asphalt'}",Via Rustichello da Pisa
43.7177839,10.3908125,"{'highway': 'residential', 'lanes': '2', 'lanes:forward': '1', 'lanes:psv:backward': '1', 'maxspeed': '30', 'name': 'Via Rustichello da Pisa', 'name:etymology:wikidata': 'Q366741', 'oneway': 'yes', 'oneway:psv': 'no', 'surface': 'asphalt'}",Via Rustichello da Pisa
43.7177624,10.3908401,"{'highway': 'residential', 'lanes': '2', 'lanes:forward': '1', 'lanes:psv:backward': '1', 'maxspeed': '30', 'name': 'Via Rustichello da Pisa', 'name:etymology:wikidata': 'Q366741', 'oneway': 'yes', 'oneway:psv': 'no', 'surface': 'asphalt'}",Via Rustichello da Pisa
43.7177253,10.390884,"{'highway': 'residential', 'lanes': '2', 'lanes:forward': '1', 'lanes:psv:backward': '1', 'maxspeed': '30', 'name': 'Via Rustichello da Pisa', 'name:etymology:wikidata': 'Q366741', 'oneway': 'yes', 'oneway:psv': 'no', 'surface': 'asphalt'}",Via Rustichello da Pisa
43.7176882,10.3909209,"{'highway': 'residential', 'lanes': '2', 'lanes:forward': '1', 'lanes:psv:backward': '1', 'maxspeed': '30', 'name': 'Via Rustichello da Pisa', 'name:etymology:wikidata': 'Q366741', 'oneway': 'yes', 'oneway:psv': 'no', 'surface': 'asphalt'}",Via Rustichello da Pisa
43.7175549,10.3910696,"{'highway': 'residential', 'lanes': '2', 'lanes:forward': '1', 'lanes:psv:backward': '1', 'maxspeed': '30', 'name': 'Via Rustichello da Pisa', 'name:etymology:wikidata': 'Q366741', 'oneway': 'yes', 'oneway:psv': 'no', 'surface': 'asphalt'}",Via Rustichello da Pisa
43.7172884,10.3913635,"{'highway': 'residential', 'lanes': '2', 'lanes:forward': '1', 'lanes:psv:backward': '1', 'maxspeed': '30', 'name': 'Via Rustichello da Pisa', 'name:etymology:wikidata': 'Q366741', 'oneway': 'yes', 'oneway:psv': 'no', 'surface': 'asphalt'}",Via Rustichello da Pisa
43.7170975,10.3915637,"{'highway': 'residential', 'lanes': '2', 'lanes:forward': '1', 'lanes:psv:backward': '1', 'maxspeed': '30', 'name': 'Via Rustichello da Pisa', 'name:etymology:wikidata': 'Q366741', 'oneway': 'yes', 'oneway:psv': 'no', 'surface': 'asphalt'}",Via Rustichello da Pisa
43.7170206,10.3916516,"{'highway': 'residential', 'lanes': '2', 'lanes:forward': '1', 'lanes:psv:backward': '1', 'maxspeed': '30', 'name': 'Via Rustichello da Pisa', 'name:etymology:wikidata': 'Q366741', 'oneway': 'yes', 'oneway:psv': 'no', 'surface': 'asphalt'}",Via Rustichello da Pisa
43.7197737,10.3956139,"{'access:lanes': 'yes|hospital', 'highway': 'residential', 'lanes': '2', 'maxspeed': '30', 'name': 'Via Paolo Savi', 'name:etymology:wikidata': 'Q2356835', 'oneway': 'yes', 'surface': 'asphalt'}",Via Paolo Savi
43.7197765,10.3955492,"{'access:lanes': 'yes|hospital', 'highway': 'residential', 'lanes': '2', 'maxspeed': '30', 'name': 'Via Paolo Savi', 'name:etymology:wikidata': 'Q2356835', 'oneway': 'yes', 'surface': 'asphalt'}",Via Paolo Savi
43.7198398,10.3941001,"{'access:lanes': 'yes|hospital', 'highway': 'residential', 'lanes': '2', 'maxspeed': '30', 'name': 'Via Paolo Savi', 'name:etymology:wikidata': 'Q2356835', 'oneway': 'yes', 'surface': 'asphalt'}",Via Paolo Savi
43.7198649,10.3935562,"{'access:lanes': 'yes|hospital', 'highway': 'residential', 'lanes': '2', 'maxspeed': '30', 'name': 'Via Paolo Savi', 'name:etymology:wikidata': 'Q2356835', 'oneway': 'yes', 'surface': 'asphalt'}",Via Paolo Savi
43.7198919,10.3929772,"{'access:lanes': 'yes|hospital', 'highway': 'residential', 'lanes': '2', 'maxspeed': '30', 'name': 'Via Paolo Savi', 'name:etymology:wikidata': 'Q2356835', 'oneway': 'yes', 'surface': 'asphalt'}",Via Paolo Savi
43.7181988,10.3925435,"{'highway': 'residential', 'maxspeed': '30', 'name': 'Via Risorgimento', 'name:etymology:wikidata': 'Q51122', 'surface': 'asphalt', 'wikidata': 'Q122619368'}",Via Risorgimento
43.71863,10.3911058,"{'highway': 'residential', 'maxspeed': '30', 'name': 'Via Risorgimento', 'name:etymology:wikidata': 'Q51122', 'surface': 'asphalt', 'wikidata': 'Q122619368'}",Via Risorgimento
43.7188109,10.390514,"{'highway': 'residential', 'maxspeed': '30', 'name': 'Via Risorgimento', 'name:etymology:wikidata': 'Q51122', 'surface': 'asphalt', 'wikidata': 'Q122619368'}",Via Risorgimento
43.720987,10.3886822,"{'highway': 'residential', 'lane_markings': 'no', 'lit': 'yes', 'maxspeed:type': 'IT:urban', 'name': 'Via Cimabue', 'name:etymology:wikidata': 'Q15790', 'oneway': 'yes', 'parking:both': 'lane', 'parking:both:orientation': 'parallel', 'surface': 'asphalt'}",Via Cimabue
43.7208953,10.3886297,"{'highway': 'residential', 'lane_markings': 'no', 'lit': 'yes', 'maxspeed:type': 'IT:urban', 'name': 'Via Cimabue', 'name:etymology:wikidata': 'Q15790', 'oneway': 'yes', 'parking:both': 'lane', 'parking:both:orientation': 'parallel', 'surface': 'asphalt'}",Via Cimabue
43.7196471,10.3879154,"{'highway': 'residential', 'lane_markings': 'no', 'lit': 'yes', 'maxspeed:type': 'IT:urban', 'name': 'Via Cimabue', 'name:etymology:wikidata': 'Q15790', 'oneway': 'yes', 'parking:both': 'lane', 'parking:both:orientation': 'parallel', 'surface': 'asphalt'}",Via Cimabue
43.7193788,10.3886093,"{'highway': 'residential', 'maxspeed:type': 'IT:urban', 'name': 'Via Carlo Francesco Gabba', 'name:etymology:wikidata': 'Q2294066', 'note': 'to_review', 'oneway': 'yes', 'surface': 'asphalt'}",Via Carlo Francesco Gabba
43.7194627,10.3884616,"{'highway': 'residential', 'maxspeed:type': 'IT:urban', 'name': 'Via Carlo Francesco Gabba', 'name:etymology:wikidata': 'Q2294066', 'note': 'to_review', 'oneway': 'yes', 'surface': 'asphalt'}",Via Carlo Francesco Gabba
43.7195058,10.3883909,"{'highway': 'residential', 'maxspeed:type': 'IT:urban', 'name': 'Via Carlo Francesco Gabba', 'name:etymology:wikidata': 'Q2294066', 'note': 'to_review', 'oneway': 'yes', 'surface': 'asphalt'}",Via Carlo Francesco Gabba
43.7196471,10.3879154,"{'highway': 'residential', 'maxspeed:type': 'IT:urban', 'name': 'Via Carlo Francesco Gabba', 'name:etymology:wikidata': 'Q2294066', 'note': 'to_review', 'oneway': 'yes', 'surface': 'asphalt'}",Via Carlo Francesco Gabba
43.7197409,10.3875995,"{'highway': 'residential', 'maxspeed:type': 'IT:urban', 'name': 'Via Carlo Francesco Gabba', 'name:etymology:wikidata': 'Q2294066', 'note': 'to_review', 'oneway': 'yes', 'surface': 'asphalt'}",Via Carlo Francesco Gabba
43.7197278,10.3875702,"{'highway': 'residential', 'maxspeed:type': 'IT:urban', 'name': 'Via Carlo Francesco Gabba', 'name:etymology:wikidata': 'Q2294066', 'note': 'to_review', 'oneway': 'yes', 'surface': 'asphalt'}",Via Carlo Francesco Gabba
43.719704,10.3875554,"{'highway': 'residential', 'maxspeed:type': 'IT:urban', 'name': 'Via Carlo Francesco Gabba', 'name:etymology:wikidata': 'Q2294066', 'note': 'to_review', 'oneway': 'yes', 'surface': 'asphalt'}",Via Carlo Francesco Gabba
43.7196654,10.3875475,"{'highway': 'residential', 'maxspeed:type': 'IT:urban', 'name': 'Via Carlo Francesco Gabba', 'name:etymology:wikidata': 'Q2294066', 'note': 'to_review', 'oneway': 'yes', 'surface': 'asphalt'}",Via Carlo Francesco Gabba
43.7196415,10.3875538,"{'highway': 'residential', 'maxspeed:type': 'IT:urban', 'name': 'Via Carlo Francesco Gabba', 'name:etymology:wikidata': 'Q2294066', 'note': 'to_review', 'oneway': 'yes', 'surface': 'asphalt'}",Via Carlo Francesco Gabba
43.7194012,10.3883558,"{'highway': 'residential', 'maxspeed:type': 'IT:urban', 'name': 'Via Carlo Francesco Gabba', 'name:etymology:wikidata': 'Q2294066', 'note': 'to_review', 'oneway': 'yes', 'surface': 'asphalt'}",Via Carlo Francesco Gabba
43.7235867,10.3916438,"{'highway': 'residential', 'name': 'Via Vecchia Barbaricina', 'oneway': 'yes', 'source': 'PCN aerial 2006;Bing aerial', 'surface': 'asphalt'}",Via Vecchia Barbaricina
43.723657,10.391824,"{'highway': 'residential', 'name': 'Via Vecchia Barbaricina', 'oneway': 'yes', 'source': 'PCN aerial 2006;Bing aerial', 'surface': 'asphalt'}",Via Vecchia Barbaricina
43.7236889,10.3919032,"{'highway': 'residential', 'name': 'Via Vecchia Barbaricina', 'oneway': 'yes', 'source': 'PCN aerial 2006;Bing aerial', 'surface': 'asphalt'}",Via Vecchia Barbaricina
43.7207913,10.389332,"{'highway': 'residential', 'lane_markings': 'no', 'lit': 'yes', 'maxspeed:type': 'IT:urban', 'name': 'Largo Lucio Lazzarino', 'oneway': 'yes', 'parking:both': 'lane', 'parking:both:orientation': 'diagonal', 'source': 'PCN aerial 2006', 'surface': 'asphalt'}",Largo Lucio Lazzarino
43.7205101,10.3895106,"{'highway': 'residential', 'lane_markings': 'no', 'lit': 'yes', 'maxspeed:type': 'IT:urban', 'name': 'Largo Lucio Lazzarino', 'oneway': 'yes', 'parking:both': 'lane', 'parking:both:orientation': 'diagonal', 'source': 'PCN aerial 2006', 'surface': 'asphalt'}",Largo Lucio Lazzarino
43.718127,10.3969295,"{'highway': 'residential', 'lit': 'yes', 'name': 'Via Alessandro Volta', 'name:etymology:wikidata': 'Q680', 'oneway': 'yes', 'surface': 'paving_stones'}",Via Alessandro Volta
43.7185491,10.3954947,"{'highway': 'residential', 'lit': 'yes', 'name': 'Via Alessandro Volta', 'name:etymology:wikidata': 'Q680', 'oneway': 'yes', 'surface': 'paving_stones'}",Via Alessandro Volta
43.7185628,10.3954505,"{'highway': 'residential', 'lit': 'yes', 'name': 'Via Alessandro Volta', 'name:etymology:wikidata': 'Q680', 'oneway': 'yes', 'surface': 'paving_stones'}",Via Alessandro Volta
43.7185764,10.3954069,"{'highway': 'residential', 'lit': 'yes', 'name': 'Via Alessandro Volta', 'name:etymology:wikidata': 'Q680', 'oneway': 'yes', 'surface': 'paving_stones'}",Via Alessandro Volta
43.7193247,10.3929429,"{'highway': 'residential', 'maxspeed': '30', 'name': 'Via Derna', 'oneway': 'yes', 'surface': 'asphalt'}",Via Derna
43.7193091,10.3929945,"{'highway': 'residential', 'maxspeed': '30', 'name': 'Via Derna', 'oneway': 'yes', 'surface': 'asphalt'}",Via Derna
43.718592,10.3953585,"{'highway': 'residential', 'maxspeed': '30', 'name': 'Via Derna', 'oneway': 'yes', 'surface': 'asphalt'}",Via Derna
43.7185764,10.3954069,"{'highway': 'residential', 'maxspeed': '30', 'name': 'Via Derna', 'oneway': 'yes', 'surface': 'asphalt'}",Via Derna
43.7187179,10.3874667,"{'highway': 'residential', 'name': 'Via Turino Vanni', 'name:etymology:wikidata': 'Q3542305', 'parking:both': 'street_side', 'parking:both:fee': 'yes', 'parking:both:orientation': 'parallel'}",Via Turino Vanni
43.7184888,10.3882776,"{'highway': 'residential', 'name': 'Via Turino Vanni', 'name:etymology:wikidata': 'Q3542305', 'parking:both': 'street_side', 'parking:both:fee': 'yes', 'parking:both:orientation': 'parallel'}",Via Turino Vanni
43.718271,10.3890976,"{'highway': 'residential', 'name': 'Via Turino Vanni', 'name:etymology:wikidata': 'Q3542305', 'parking:both': 'street_side', 'parking:both:fee': 'yes', 'parking:both:orientation': 'parallel'}",Via Turino Vanni
43.7182048,10.3893493,"{'highway': 'residential', 'name': 'Via Turino Vanni', 'name:etymology:wikidata': 'Q3542305', 'parking:both': 'street_side', 'parking:both:fee': 'yes', 'parking:both:orientation': 'parallel'}",Via Turino Vanni
43.7181759,10.3894504,"{'highway': 'residential', 'name': 'Via Turino Vanni', 'name:etymology:wikidata': 'Q3542305', 'parking:both': 'street_side', 'parking:both:fee': 'yes', 'parking:both:orientation': 'parallel'}",Via Turino Vanni
43.7168993,10.3876148,"{'highway': 'residential', 'name': 'Via Spinello Aretino'}",Via Spinello Aretino
43.7177853,10.3879695,"{'highway': 'residential', 'name': 'Via Spinello Aretino'}",Via Spinello Aretino
43.7179971,10.3880506,"{'highway': 'residential', 'name': 'Via Spinello Aretino'}",Via Spinello Aretino
43.7181956,10.3881209,"{'highway': 'residential', 'name': 'Via Spinello Aretino'}",Via Spinello Aretino
43.7182576,10.3881446,"{'highway': 'residential', 'name': 'Via Spinello Aretino'}",Via Spinello Aretino
43.7184888,10.3882776,"{'highway': 'residential', 'name': 'Via Spinello Aretino'}",Via Spinello Aretino
43.7154022,10.3945081,"{'highway': 'residential', 'maxspeed': '50', 'name': 'Via Volturno', 'oneway': 'yes', 'surface': 'asphalt'}",Via Volturno
43.7154276,10.394355,"{'highway': 'residential', 'maxspeed': '50', 'name': 'Via Volturno', 'oneway': 'yes', 'surface': 'asphalt'}",Via Volturno
43.7154515,10.3942277,"{'highway': 'residential', 'maxspeed': '50', 'name': 'Via Volturno', 'oneway': 'yes', 'surface': 'asphalt'}",Via Volturno
43.7155081,10.3939036,"{'highway': 'residential', 'maxspeed': '50', 'name': 'Via Volturno', 'oneway': 'yes', 'surface': 'asphalt'}",Via Volturno
43.7155322,10.3937765,"{'highway': 'residential', 'maxspeed': '50', 'name': 'Via Volturno', 'oneway': 'yes', 'surface': 'asphalt'}",Via Volturno
43.7155783,10.3936332,"{'highway': 'residential', 'maxspeed': '50', 'name': 'Via Volturno', 'oneway': 'yes', 'surface': 'asphalt'}",Via Volturno
43.7156299,10.393497,"{'highway': 'residential', 'maxspeed': '50', 'name': 'Via Volturno', 'oneway': 'yes', 'surface': 'asphalt'}",Via Volturno
43.7156736,10.3933939,"{'highway': 'residential', 'maxspeed': '50', 'name': 'Via Volturno', 'oneway': 'yes', 'surface': 'asphalt'}",Via Volturno
43.7157765,10.3931755,"{'highway': 'residential', 'maxspeed': '50', 'name': 'Via Volturno', 'oneway': 'yes', 'surface': 'asphalt'}",Via Volturno
43.7159922,10.3927926,"{'highway': 'residential', 'maxspeed': '50', 'name': 'Via Volturno', 'oneway': 'yes', 'surface': 'asphalt'}",Via Volturno
43.7161689,10.3925007,"{'highway': 'residential', 'maxspeed': '50', 'name': 'Via Volturno', 'oneway': 'yes', 'surface': 'asphalt'}",Via Volturno
43.7162631,10.3923121,"{'highway': 'residential', 'maxspeed': '50', 'name': 'Via Volturno', 'oneway': 'yes', 'surface': 'asphalt'}",Via Volturno
43.7163474,10.3921407,"{'highway': 'residential', 'maxspeed': '50', 'name': 'Via Volturno', 'oneway': 'yes', 'surface': 'asphalt'}",Via Volturno
43.7163978,10.392012,"{'highway': 'residential', 'maxspeed': '50', 'name': 'Via Volturno', 'oneway': 'yes', 'surface': 'asphalt'}",Via Volturno
43.7165051,10.3916942,"{'highway': 'residential', 'maxspeed': '50', 'name': 'Via Volturno', 'oneway': 'yes', 'surface': 'asphalt'}",Via Volturno
43.7165557,10.3915297,"{'highway': 'residential', 'maxspeed': '50', 'name': 'Via Volturno', 'oneway': 'yes', 'surface': 'asphalt'}",Via Volturno
43.7159922,10.3927926,"{'highway': 'residential', 'maxspeed': '50', 'name': 'Via San Vito', 'oneway': 'yes', 'surface': 'asphalt'}",Via San Vito
43.7159646,10.3927582,"{'highway': 'residential', 'maxspeed': '50', 'name': 'Via San Vito', 'oneway': 'yes', 'surface': 'asphalt'}",Via San Vito
43.7158179,10.3925748,"{'highway': 'residential', 'maxspeed': '50', 'name': 'Via San Vito', 'oneway': 'yes', 'surface': 'asphalt'}",Via San Vito
43.7154702,10.3929835,"{'highway': 'residential', 'maxspeed': '50', 'name': 'Via San Vito', 'oneway': 'yes', 'surface': 'asphalt'}",Via San Vito
43.715189,10.393272,"{'highway': 'residential', 'maxspeed': '50', 'name': 'Via San Vito', 'oneway': 'yes', 'surface': 'asphalt'}",Via San Vito
43.7151198,10.3933672,"{'highway': 'residential', 'maxspeed': '50', 'name': 'Via San Vito', 'oneway': 'yes', 'surface': 'asphalt'}",Via San Vito
43.7149789,10.3935791,"{'highway': 'residential', 'maxspeed': '50', 'name': 'Via San Vito', 'oneway': 'yes', 'surface': 'asphalt'}",Via San Vito
43.7149487,10.3936246,"{'highway': 'residential', 'maxspeed': '50', 'name': 'Via San Vito', 'oneway': 'yes', 'surface': 'asphalt'}",Via San Vito
43.7215349,10.3957813,"{'highway': 'residential', 'lit': 'yes', 'maxspeed': '30', 'name': 'Via Angelo Galli Tassi', 'note': 'to_review', 'oneway': 'yes', 'sidewalk': 'left', 'surface': 'asphalt'}",Via Angelo Galli Tassi
43.7215057,10.3966777,"{'highway': 'residential', 'lit': 'yes', 'maxspeed': '30', 'name': 'Via Angelo Galli Tassi', 'note': 'to_review', 'oneway': 'yes', 'sidewalk': 'left', 'surface': 'asphalt'}",Via Angelo Galli Tassi
43.7181988,10.3925435,"{'highway': 'residential', 'maxspeed': '30', 'name': 'Via Risorgimento', 'name:etymology:wikidata': 'Q51122', 'oneway': 'yes', 'surface': 'asphalt', 'wikidata': 'Q122619368'}",Via Risorgimento
43.7181872,10.3926103,"{'highway': 'residential', 'maxspeed': '30', 'name': 'Via Risorgimento', 'name:etymology:wikidata': 'Q51122', 'oneway': 'yes', 'surface': 'asphalt', 'wikidata': 'Q122619368'}",Via Risorgimento
43.7180247,10.39365,"{'highway': 'residential', 'maxspeed': '30', 'name': 'Via Risorgimento', 'name:etymology:wikidata': 'Q51122', 'oneway': 'yes', 'surface': 'asphalt', 'wikidata': 'Q122619368'}",Via Risorgimento
43.7179345,10.3942438,"{'highway': 'residential', 'maxspeed': '30', 'name': 'Via Risorgimento', 'name:etymology:wikidata': 'Q51122', 'oneway': 'yes', 'surface': 'asphalt', 'wikidata': 'Q122619368'}",Via Risorgimento
43.7178031,10.3951098,"{'highway': 'residential', 'maxspeed': '30', 'name': 'Via Risorgimento', 'name:etymology:wikidata': 'Q51122', 'oneway': 'yes', 'surface': 'asphalt', 'wikidata': 'Q122619368'}",Via Risorgimento
43.71779,10.3951959,"{'highway': 'residential', 'maxspeed': '30', 'name': 'Via Risorgimento', 'name:etymology:wikidata': 'Q51122', 'oneway': 'yes', 'surface': 'asphalt', 'wikidata': 'Q122619368'}",Via Risorgimento
43.7180247,10.39365,"{'highway': 'residential', 'name': 'Via Magenta', 'oneway': 'yes'}",Via Magenta
43.7179987,10.393642,"{'highway': 'residential', 'name': 'Via Magenta', 'oneway': 'yes'}",Via Magenta
43.7170109,10.3933401,"{'highway': 'residential', 'name': 'Via Magenta', 'oneway': 'yes'}",Via Magenta
43.7166791,10.3963901,"{'highway': 'residential', 'maxspeed': '30', 'name': 'Via Trento', 'name:etymology:wikidata': 'Q3376', 'oneway': 'yes', 'surface': 'paving_stones'}",Via Trento
43.7167786,10.3956664,"{'highway': 'residential', 'maxspeed': '30', 'name': 'Via Trento', 'name:etymology:wikidata': 'Q3376', 'oneway': 'yes', 'surface': 'paving_stones'}",Via Trento
43.7168523,10.39526,"{'highway': 'residential', 'maxspeed': '30', 'name': 'Via Trento', 'name:etymology:wikidata': 'Q3376', 'oneway': 'yes', 'surface': 'paving_stones'}",Via Trento
43.7169167,10.3949861,"{'highway': 'residential', 'maxspeed': '30', 'name': 'Via Trento', 'name:etymology:wikidata': 'Q3376', 'oneway': 'yes', 'surface': 'paving_stones'}",Via Trento
43.7169278,10.3949365,"{'highway': 'residential', 'maxspeed': '30', 'name': 'Via Trento', 'name:etymology:wikidata': 'Q3376', 'oneway': 'yes', 'surface': 'paving_stones'}",Via Trento
43.7169278,10.3949365,"{'highway': 'residential', 'maxspeed': '50', 'name': 'Via Trieste', 'name:etymology:wikidata': 'Q546', 'oneway': 'yes', 'surface': 'asphalt'}",Via Trieste
43.7169342,10.3948797,"{'highway': 'residential', 'maxspeed': '50', 'name': 'Via Trieste', 'name:etymology:wikidata': 'Q546', 'oneway': 'yes', 'surface': 'asphalt'}",Via Trieste
43.7169939,10.3936009,"{'highway': 'residential', 'maxspeed': '50', 'name': 'Via Trieste', 'name:etymology:wikidata': 'Q546', 'oneway': 'yes', 'surface': 'asphalt'}",Via Trieste
43.7170109,10.3933401,"{'highway': 'residential', 'maxspeed': '50', 'name': 'Via Trieste', 'name:etymology:wikidata': 'Q546', 'oneway': 'yes', 'surface': 'asphalt'}",Via Trieste
43.7170502,10.3930307,"{'highway': 'residential', 'maxspeed': '50', 'name': 'Via Trieste', 'name:etymology:wikidata': 'Q546', 'oneway': 'yes', 'surface': 'asphalt'}",Via Trieste
43.7171084,10.3928397,"{'highway': 'residential', 'maxspeed': '50', 'name': 'Via Trieste', 'name:etymology:wikidata': 'Q546', 'oneway': 'yes', 'surface': 'asphalt'}",Via Trieste
43.7172886,10.3923824,"{'highway': 'residential', 'maxspeed': '50', 'name': 'Via Trieste', 'name:etymology:wikidata': 'Q546', 'oneway': 'yes', 'surface': 'asphalt'}",Via Trieste
43.717472,10.3919227,"{'highway': 'residential', 'maxspeed': '50', 'name': 'Via Trieste', 'name:etymology:wikidata': 'Q546', 'oneway': 'yes', 'surface': 'asphalt'}",Via Trieste
43.7168523,10.39526,"{'cycleway:both': 'no', 'highway': 'residential', 'maxspeed:type': 'IT:urban', 'name': 'Via Santa Lucia', 'oneway': 'yes', 'sidewalk': 'none', 'surface': 'sett'}",Via Santa Lucia
43.7164916,10.395253,"{'cycleway:both': 'no', 'highway': 'residential', 'maxspeed:type': 'IT:urban', 'name': 'Via Santa Lucia', 'oneway': 'yes', 'sidewalk': 'none', 'surface': 'sett'}",Via Santa Lucia
43.7161419,10.3952414,"{'cycleway:both': 'no', 'highway': 'residential', 'maxspeed:type': 'IT:urban', 'name': 'Via Santa Lucia', 'oneway': 'yes', 'sidewalk': 'none', 'surface': 'sett'}",Via Santa Lucia
43.7160936,10.3953677,"{'cycleway:both': 'no', 'highway': 'residential', 'lanes': '1', 'lit': 'yes', 'maxspeed:type': 'IT:urban', 'name': 'Via del Buongusto', 'oneway': 'yes', 'sidewalk': 'none', 'surface': 'asphalt'}",Via del Buongusto
43.7158679,10.3954901,"{'cycleway:both': 'no', 'highway': 'residential', 'lanes': '1', 'lit': 'yes', 'maxspeed:type': 'IT:urban', 'name': 'Via del Buongusto', 'oneway': 'yes', 'sidewalk': 'none', 'surface': 'asphalt'}",Via del Buongusto
43.7158105,10.3955213,"{'cycleway:both': 'no', 'highway': 'residential', 'lanes': '1', 'lit': 'yes', 'maxspeed:type': 'IT:urban', 'name': 'Via del Buongusto', 'oneway': 'yes', 'sidewalk': 'none', 'surface': 'asphalt'}",Via del Buongusto
43.7167786,10.3956664,"{'highway': 'residential', 'name': 'Via Ricucchi', 'surface': 'paving_stones'}",Via Ricucchi
43.7163334,10.3958066,"{'highway': 'residential', 'name': 'Via Ricucchi', 'surface': 'paving_stones'}",Via Ricucchi
43.7181507,10.3895351,"{'highway': 'residential', 'name': 'Via Pietro da Pisa', 'surface': 'unpaved'}",Via Pietro da Pisa
43.7180283,10.3895841,"{'highway': 'residential', 'name': 'Via Pietro da Pisa', 'surface': 'unpaved'}",Via Pietro da Pisa
43.7176793,10.3897397,"{'highway': 'residential', 'name': 'Via Pietro da Pisa', 'surface': 'unpaved'}",Via Pietro da Pisa
43.7173618,10.3893422,"{'highway': 'residential', 'name': 'Via Pietro da Pisa', 'surface': 'unpaved'}",Via Pietro da Pisa
43.7176793,10.3897397,"{'highway': 'residential', 'name': 'Via Pietro da Pisa', 'surface': 'unpaved'}",Via Pietro da Pisa
43.7175955,10.389831,"{'highway': 'residential', 'name': 'Via Pietro da Pisa', 'surface': 'unpaved'}",Via Pietro da Pisa
43.7175767,10.3898591,"{'highway': 'residential', 'name': 'Via Pietro da Pisa', 'surface': 'unpaved'}",Via Pietro da Pisa
43.7175633,10.389889,"{'highway': 'residential', 'name': 'Via Pietro da Pisa', 'surface': 'unpaved'}",Via Pietro da Pisa
43.7175532,10.3899153,"{'highway': 'residential', 'name': 'Via Pietro da Pisa', 'surface': 'unpaved'}",Via Pietro da Pisa
43.7175515,10.3899413,"{'highway': 'residential', 'name': 'Via Pietro da Pisa', 'surface': 'unpaved'}",Via Pietro da Pisa
43.7175555,10.3899743,"{'highway': 'residential', 'name': 'Via Pietro da Pisa', 'surface': 'unpaved'}",Via Pietro da Pisa
43.7175676,10.3900026,"{'highway': 'residential', 'name': 'Via Pietro da Pisa', 'surface': 'unpaved'}",Via Pietro da Pisa
43.7175911,10.3900451,"{'highway': 'residential', 'name': 'Via Pietro da Pisa', 'surface': 'unpaved'}",Via Pietro da Pisa
43.7176145,10.3900801,"{'highway': 'residential', 'name': 'Via Pietro da Pisa', 'surface': 'unpaved'}",Via Pietro da Pisa
43.7176365,10.3901157,"{'highway': 'residential', 'name': 'Via Pietro da Pisa', 'surface': 'unpaved'}",Via Pietro da Pisa
43.7176447,10.3901384,"{'highway': 'residential', 'name': 'Via Pietro da Pisa', 'surface': 'unpaved'}",Via Pietro da Pisa
43.7176474,10.3901609,"{'highway': 'residential', 'name': 'Via Pietro da Pisa', 'surface': 'unpaved'}",Via Pietro da Pisa
43.7176503,10.3902061,"{'highway': 'residential', 'name': 'Via Pietro da Pisa', 'surface': 'unpaved'}",Via Pietro da Pisa
43.7176335,10.3902436,"{'highway': 'residential', 'name': 'Via Pietro da Pisa', 'surface': 'unpaved'}",Via Pietro da Pisa
43.7176071,10.3902845,"{'highway': 'residential', 'name': 'Via Pietro da Pisa', 'surface': 'unpaved'}",Via Pietro da Pisa
43.716231,10.39474,"{'highway': 'residential', 'maxspeed': '30', 'name': 'Via Roma', 'oneway': 'yes', 'surface': 'asphalt'}",Via Roma
43.7163498,10.394785,"{'highway': 'residential', 'maxspeed': '30', 'name': 'Via Roma', 'oneway': 'yes', 'surface': 'asphalt'}",Via Roma
43.7160043,10.3879857,"{'highway': 'residential', 'name': 'Via dei Macelli', 'name:etymology:wikidata': 'Q385557', 'oneway': 'yes'}",Via dei Macelli
43.7160304,10.3880731,"{'highway': 'residential', 'name': 'Via dei Macelli', 'name:etymology:wikidata': 'Q385557', 'oneway': 'yes'}",Via dei Macelli
43.7162401,10.3887084,"{'highway': 'residential', 'name': 'Via dei Macelli', 'name:etymology:wikidata': 'Q385557', 'oneway': 'yes'}",Via dei Macelli
43.7162401,10.3887084,"{'highway': 'residential', 'name': 'Via dei Macelli', 'name:etymology:wikidata': 'Q385557', 'surface': 'asphalt'}",Via dei Macelli
43.7165387,10.3895781,"{'highway': 'residential', 'name': 'Via dei Macelli', 'name:etymology:wikidata': 'Q385557', 'surface': 'asphalt'}",Via dei Macelli
43.7165595,10.389637,"{'highway': 'residential', 'name': 'Via dei Macelli', 'name:etymology:wikidata': 'Q385557', 'surface': 'asphalt'}",Via dei Macelli
43.7166594,10.3898657,"{'highway': 'residential', 'name': 'Via dei Macelli', 'name:etymology:wikidata': 'Q385557', 'surface': 'asphalt'}",Via dei Macelli
43.7162401,10.3887084,"{'highway': 'residential', 'name': 'Via dei Macelli', 'name:etymology:wikidata': 'Q385557', 'oneway': 'yes'}",Via dei Macelli
43.7163789,10.3883313,"{'highway': 'residential', 'name': 'Via dei Macelli', 'name:etymology:wikidata': 'Q385557', 'oneway': 'yes'}",Via dei Macelli
43.7164088,10.3882581,"{'highway': 'residential', 'name': 'Via dei Macelli', 'name:etymology:wikidata': 'Q385557', 'oneway': 'yes'}",Via dei Macelli
43.7163698,10.3945476,"{'highway': 'residential', 'lanes': '2', 'lanes:bus:backward': '1', 'lanes:forward': '1', 'maxspeed': '30', 'name': 'Via Enrico Fermi', 'oneway': 'yes', 'oneway:psv': 'no'}",Via Enrico Fermi
43.7163265,10.394596,"{'highway': 'residential', 'lanes': '2', 'lanes:bus:backward': '1', 'lanes:forward': '1', 'maxspeed': '30', 'name': 'Via Enrico Fermi', 'oneway': 'yes', 'oneway:psv': 'no'}",Via Enrico Fermi
43.7162887,10.394628,"{'highway': 'residential', 'lanes': '2', 'lanes:bus:backward': '1', 'lanes:forward': '1', 'maxspeed': '30', 'name': 'Via Enrico Fermi', 'oneway': 'yes', 'oneway:psv': 'no'}",Via Enrico Fermi
43.7162453,10.3946568,"{'highway': 'residential', 'lanes': '2', 'lanes:bus:backward': '1', 'lanes:forward': '1', 'maxspeed': '30', 'name': 'Via Enrico Fermi', 'oneway': 'yes', 'oneway:psv': 'no'}",Via Enrico Fermi
43.7161567,10.394714,"{'highway': 'residential', 'lanes': '2', 'lanes:bus:backward': '1', 'lanes:forward': '1', 'maxspeed': '30', 'name': 'Via Enrico Fermi', 'oneway': 'yes', 'oneway:psv': 'no'}",Via Enrico Fermi
43.723301,10.3908541,"{'highway': 'residential', 'name': 'Via Vecchia Barbaricina', 'oneway': 'yes', 'source': 'PCN aerial 2006;Bing aerial', 'surface': 'asphalt'}",Via Vecchia Barbaricina
43.7233654,10.3910598,"{'highway': 'residential', 'name': 'Via Vecchia Barbaricina', 'oneway': 'yes', 'source': 'PCN aerial 2006;Bing aerial', 'surface': 'asphalt'}",Via Vecchia Barbaricina
43.7235867,10.3916438,"{'highway': 'residential', 'name': 'Via Vecchia Barbaricina', 'oneway': 'yes', 'source': 'PCN aerial 2006;Bing aerial', 'surface': 'asphalt'}",Via Vecchia Barbaricina
43.7194012,10.3883558,"{'highway': 'residential', 'maxspeed:type': 'IT:urban', 'name': 'Via Carlo Francesco Gabba', 'name:etymology:wikidata': 'Q2294066', 'note': 'to_review', 'oneway': 'yes', 'surface': 'asphalt'}",Via Carlo Francesco Gabba
43.7193788,10.3886093,"{'highway': 'residential', 'maxspeed:type': 'IT:urban', 'name': 'Via Carlo Francesco Gabba', 'name:etymology:wikidata': 'Q2294066', 'note': 'to_review', 'oneway': 'yes', 'surface': 'asphalt'}",Via Carlo Francesco Gabba
43.7193788,10.3886093,"{'cycleway': 'no', 'highway': 'unclassified', 'lit': 'yes', 'maxspeed': 'IT:urban', 'name': 'Via Carlo Francesco Gabba', 'name:etymology:wikidata': 'Q2294066', 'width': '10'}",Via Carlo Francesco Gabba
43.7193253,10.388812,"{'cycleway': 'no', 'highway': 'unclassified', 'lit': 'yes', 'maxspeed': 'IT:urban', 'name': 'Via Carlo Francesco Gabba', 'name:etymology:wikidata': 'Q2294066', 'width': '10'}",Via Carlo Francesco Gabba
43.7190802,10.3896131,"{'cycleway': 'no', 'highway': 'unclassified', 'lit': 'yes', 'maxspeed': 'IT:urban', 'name': 'Via Carlo Francesco Gabba', 'name:etymology:wikidata': 'Q2294066', 'width': '10'}",Via Carlo Francesco Gabba
43.7205101,10.3895106,"{'highway': 'residential', 'lane_markings': 'no', 'lit': 'yes', 'maxspeed:type': 'IT:urban', 'name': 'Via Francesco Traini', 'name:etymology:wikidata': 'Q673516', 'parking:both': 'street_side', 'parking:both:fee': 'yes', 'parking:both:orientation': 'perpendicular', 'source': 'PCN aerial 2006', 'surface': 'asphalt'}",Via Francesco Traini
43.71941,10.3888632,"{'highway': 'residential', 'lane_markings': 'no', 'lit': 'yes', 'maxspeed:type': 'IT:urban', 'name': 'Via Francesco Traini', 'name:etymology:wikidata': 'Q673516', 'parking:both': 'street_side', 'parking:both:fee': 'yes', 'parking:both:orientation': 'perpendicular', 'source': 'PCN aerial 2006', 'surface': 'asphalt'}",Via Francesco Traini
43.7193885,10.3888507,"{'highway': 'residential', 'lane_markings': 'no', 'lit': 'yes', 'maxspeed:type': 'IT:urban', 'name': 'Via Francesco Traini', 'name:etymology:wikidata': 'Q673516', 'parking:both': 'street_side', 'parking:both:fee': 'yes', 'parking:both:orientation': 'perpendicular', 'source': 'PCN aerial 2006', 'surface': 'asphalt'}",Via Francesco Traini
43.7193253,10.388812,"{'highway': 'residential', 'lane_markings': 'no', 'lit': 'yes', 'maxspeed:type': 'IT:urban', 'name': 'Via Francesco Traini', 'name:etymology:wikidata': 'Q673516', 'parking:both': 'street_side', 'parking:both:fee': 'yes', 'parking:both:orientation': 'perpendicular', 'source': 'PCN aerial 2006', 'surface': 'asphalt'}",Via Francesco Traini
43.7177853,10.3879695,"{'highway': 'residential', 'name': 'Via Spinello Aretino', 'source': 'PCN aerial 2006'}",Via Spinello Aretino
43.7176282,10.3884503,"{'highway': 'residential', 'name': 'Via Spinello Aretino', 'source': 'PCN aerial 2006'}",Via Spinello Aretino
43.7205101,10.3895106,"{'highway': 'residential', 'lane_markings': 'no', 'lit': 'yes', 'maxspeed:type': 'IT:urban', 'name': 'Largo Lucio Lazzarino', 'oneway': 'yes', 'parking:both': 'lane', 'parking:both:orientation': 'diagonal', 'source': 'PCN aerial 2006', 'surface': 'asphalt'}",Largo Lucio Lazzarino
43.7206142,10.3899247,"{'highway': 'residential', 'lane_markings': 'no', 'lit': 'yes', 'maxspeed:type': 'IT:urban', 'name': 'Largo Lucio Lazzarino', 'oneway': 'yes', 'parking:both': 'lane', 'parking:both:orientation': 'diagonal', 'source': 'PCN aerial 2006', 'surface': 'asphalt'}",Largo Lucio Lazzarino
43.723301,10.3908541,"{'highway': 'residential', 'name': 'Via Vecchia Barbaricina', 'source': 'PCN aerial 2006;Bing aerial', 'surface': 'asphalt'}",Via Vecchia Barbaricina
43.7231539,10.3903392,"{'highway': 'residential', 'name': 'Via Vecchia Barbaricina', 'source': 'PCN aerial 2006;Bing aerial', 'surface': 'asphalt'}",Via Vecchia Barbaricina
43.7231255,10.3902319,"{'highway': 'residential', 'name': 'Via Vecchia Barbaricina', 'source': 'PCN aerial 2006;Bing aerial', 'surface': 'asphalt'}",Via Vecchia Barbaricina
43.7230907,10.3901238,"{'highway': 'residential', 'name': 'Via Vecchia Barbaricina', 'source': 'PCN aerial 2006;Bing aerial', 'surface': 'asphalt'}",Via Vecchia Barbaricina
43.7230154,10.38992,"{'highway': 'residential', 'name': 'Via Vecchia Barbaricina', 'source': 'PCN aerial 2006;Bing aerial', 'surface': 'asphalt'}",Via Vecchia Barbaricina
43.7229834,10.3898365,"{'highway': 'residential', 'name': 'Via Vecchia Barbaricina', 'source': 'PCN aerial 2006;Bing aerial', 'surface': 'asphalt'}",Via Vecchia Barbaricina
43.722951,10.3897496,"{'highway': 'residential', 'name': 'Via Vecchia Barbaricina', 'source': 'PCN aerial 2006;Bing aerial', 'surface': 'asphalt'}",Via Vecchia Barbaricina
43.7197737,10.3956139,"{'highway': 'residential', 'lit': 'yes', 'maxspeed': '30', 'motor_vehicle': 'permit', 'name': 'Via Roma', 'name:etymology:wikidata': 'Q220', 'oneway': 'yes', 'sidewalk': 'both', 'smoothness': 'good', 'surface': 'asphalt'}",Via Roma
43.7198195,10.3956195,"{'highway': 'residential', 'lit': 'yes', 'maxspeed': '30', 'motor_vehicle': 'permit', 'name': 'Via Roma', 'name:etymology:wikidata': 'Q220', 'oneway': 'yes', 'sidewalk': 'both', 'smoothness': 'good', 'surface': 'asphalt'}",Via Roma
43.7199103,10.3956305,"{'highway': 'residential', 'lit': 'yes', 'maxspeed': '30', 'motor_vehicle': 'permit', 'name': 'Via Roma', 'name:etymology:wikidata': 'Q220', 'oneway': 'yes', 'sidewalk': 'both', 'smoothness': 'good', 'surface': 'asphalt'}",Via Roma
43.7203219,10.3956681,"{'highway': 'residential', 'lit': 'yes', 'maxspeed': '30', 'motor_vehicle': 'permit', 'name': 'Via Roma', 'name:etymology:wikidata': 'Q220', 'oneway': 'yes', 'sidewalk': 'both', 'smoothness': 'good', 'surface': 'asphalt'}",Via Roma
43.7208636,10.3957175,"{'highway': 'residential', 'lit': 'yes', 'maxspeed': '30', 'motor_vehicle': 'permit', 'name': 'Via Roma', 'name:etymology:wikidata': 'Q220', 'oneway': 'yes', 'sidewalk': 'both', 'smoothness': 'good', 'surface': 'asphalt'}",Via Roma
43.7215349,10.3957813,"{'highway': 'residential', 'lit': 'yes', 'maxspeed': '30', 'motor_vehicle': 'permit', 'name': 'Via Roma', 'name:etymology:wikidata': 'Q220', 'oneway': 'yes', 'sidewalk': 'both', 'smoothness': 'good', 'surface': 'asphalt'}",Via Roma
43.7196758,10.3876268,"{'cutting': 'yes', 'foot': 'no', 'highway': 'unclassified', 'layer': '-1', 'maxspeed': 'IT:urban', 'name': 'Via Carlo Francesco Gabba', 'name:etymology:wikidata': 'Q2294066', 'overtaking': 'no', 'sidewalk': 'no', 'surface': 'asphalt', 'width': '7.5'}",Via Carlo Francesco Gabba
43.7194411,10.3883917,"{'cutting': 'yes', 'foot': 'no', 'highway': 'unclassified', 'layer': '-1', 'maxspeed': 'IT:urban', 'name': 'Via Carlo Francesco Gabba', 'name:etymology:wikidata': 'Q2294066', 'overtaking': 'no', 'sidewalk': 'no', 'surface': 'asphalt', 'width': '7.5'}",Via Carlo Francesco Gabba
43.7193788,10.3886093,"{'cutting': 'yes', 'foot': 'no', 'highway': 'unclassified', 'layer': '-1', 'maxspeed': 'IT:urban', 'name': 'Via Carlo Francesco Gabba', 'name:etymology:wikidata': 'Q2294066', 'overtaking': 'no', 'sidewalk': 'no', 'surface': 'asphalt', 'width': '7.5'}",Via Carlo Francesco Gabba
43.7211679,10.3880796,"{'highway': 'residential', 'lane_markings': 'no', 'lit': 'yes', 'maxspeed:type': 'IT:urban', 'name': 'Via Diotisalvi', 'name:etymology:wikidata': 'Q763522', 'oneway': 'no', 'parking:both': 'lane', 'parking:both:fee': 'yes', 'parking:both:orientation': 'diagonal', 'surface': 'asphalt'}",Via Diotisalvi
43.721059,10.3884418,"{'highway': 'residential', 'lane_markings': 'no', 'lit': 'yes', 'maxspeed:type': 'IT:urban', 'name': 'Via Diotisalvi', 'name:etymology:wikidata': 'Q763522', 'oneway': 'no', 'parking:both': 'lane', 'parking:both:fee': 'yes', 'parking:both:orientation': 'diagonal', 'surface': 'asphalt'}",Via Diotisalvi
43.7210543,10.3884581,"{'highway': 'residential', 'lane_markings': 'no', 'lit': 'yes', 'maxspeed:type': 'IT:urban', 'name': 'Via Diotisalvi', 'name:etymology:wikidata': 'Q763522', 'oneway': 'no', 'parking:both': 'lane', 'parking:both:fee': 'yes', 'parking:both:orientation': 'diagonal', 'surface': 'asphalt'}",Via Diotisalvi
43.720987,10.3886822,"{'highway': 'residential', 'lane_markings': 'no', 'lit': 'yes', 'maxspeed:type': 'IT:urban', 'name': 'Via Diotisalvi', 'name:etymology:wikidata': 'Q763522', 'oneway': 'no', 'parking:both': 'lane', 'parking:both:fee': 'yes', 'parking:both:orientation': 'diagonal', 'surface': 'asphalt'}",Via Diotisalvi
43.7207913,10.389332,"{'highway': 'residential', 'lane_markings': 'no', 'lit': 'yes', 'maxspeed:type': 'IT:urban', 'name': 'Via Diotisalvi', 'name:etymology:wikidata': 'Q763522', 'oneway': 'no', 'parking:both': 'lane', 'parking:both:fee': 'yes', 'parking:both:orientation': 'diagonal', 'surface': 'asphalt'}",Via Diotisalvi
43.7207269,10.3895492,"{'highway': 'residential', 'lane_markings': 'no', 'lit': 'yes', 'maxspeed:type': 'IT:urban', 'name': 'Via Diotisalvi', 'name:etymology:wikidata': 'Q763522', 'oneway': 'no', 'parking:both': 'lane', 'parking:both:fee': 'yes', 'parking:both:orientation': 'diagonal', 'surface': 'asphalt'}",Via Diotisalvi
43.7207016,10.3896334,"{'highway': 'residential', 'lane_markings': 'no', 'lit': 'yes', 'maxspeed:type': 'IT:urban', 'name': 'Via Diotisalvi', 'name:etymology:wikidata': 'Q763522', 'oneway': 'no', 'parking:both': 'lane', 'parking:both:fee': 'yes', 'parking:both:orientation': 'diagonal', 'surface': 'asphalt'}",Via Diotisalvi
43.7206811,10.3897016,"{'highway': 'residential', 'lane_markings': 'no', 'lit': 'yes', 'maxspeed:type': 'IT:urban', 'name': 'Via Diotisalvi', 'name:etymology:wikidata': 'Q763522', 'oneway': 'no', 'parking:both': 'lane', 'parking:both:fee': 'yes', 'parking:both:orientation': 'diagonal', 'surface': 'asphalt'}",Via Diotisalvi
43.7206142,10.3899247,"{'highway': 'residential', 'lane_markings': 'no', 'lit': 'yes', 'maxspeed:type': 'IT:urban', 'name': 'Via Diotisalvi', 'name:etymology:wikidata': 'Q763522', 'oneway': 'no', 'parking:both': 'lane', 'parking:both:fee': 'yes', 'parking:both:orientation': 'diagonal', 'surface': 'asphalt'}",Via Diotisalvi
43.7203626,10.3907866,"{'highway': 'residential', 'lane_markings': 'no', 'lit': 'yes', 'maxspeed:type': 'IT:urban', 'name': 'Via Diotisalvi', 'name:etymology:wikidata': 'Q763522', 'oneway': 'no', 'parking:both': 'lane', 'parking:both:fee': 'yes', 'parking:both:orientation': 'diagonal', 'surface': 'asphalt'}",Via Diotisalvi
43.7203357,10.3908775,"{'highway': 'residential', 'lane_markings': 'no', 'lit': 'yes', 'maxspeed:type': 'IT:urban', 'name': 'Via Diotisalvi', 'name:etymology:wikidata': 'Q763522', 'oneway': 'no', 'parking:both': 'lane', 'parking:both:fee': 'yes', 'parking:both:orientation': 'diagonal', 'surface': 'asphalt'}",Via Diotisalvi
43.7163498,10.394785,"{'highway': 'residential', 'maxspeed': '30', 'name': 'Via Roma', 'oneway': 'yes'}",Via Roma
43.7163447,10.394711,"{'highway': 'residential', 'maxspeed': '30', 'name': 'Via Roma', 'oneway': 'yes'}",Via Roma
43.7163478,10.3946534,"{'highway': 'residential', 'maxspeed': '30', 'name': 'Via Roma', 'oneway': 'yes'}",Via Roma
43.7163698,10.3945476,"{'highway': 'residential', 'lanes': '2', 'lanes:bus:backward': '1', 'lanes:forward': '1', 'maxspeed': '30', 'name': 'Via Enrico Fermi', 'name:etymology:wikidata': 'Q8753', 'oneway': 'yes', 'oneway:psv': 'no', 'surface': 'asphalt'}",Via Enrico Fermi
43.7163741,10.3945099,"{'highway': 'residential', 'lanes': '2', 'lanes:bus:backward': '1', 'lanes:forward': '1', 'maxspeed': '30', 'name': 'Via Enrico Fermi', 'name:etymology:wikidata': 'Q8753', 'oneway': 'yes', 'oneway:psv': 'no', 'surface': 'asphalt'}",Via Enrico Fermi
43.7163801,10.3944615,"{'highway': 'residential', 'lanes': '2', 'lanes:bus:backward': '1', 'lanes:forward': '1', 'maxspeed': '30', 'name': 'Via Enrico Fermi', 'name:etymology:wikidata': 'Q8753', 'oneway': 'yes', 'oneway:psv': 'no', 'surface': 'asphalt'}",Via Enrico Fermi
43.716476,10.3936376,"{'highway': 'residential', 'lanes': '2', 'lanes:bus:backward': '1', 'lanes:forward': '1', 'maxspeed': '30', 'name': 'Via Enrico Fermi', 'name:etymology:wikidata': 'Q8753', 'oneway': 'yes', 'oneway:psv': 'no', 'surface': 'asphalt'}",Via Enrico Fermi
43.7165117,10.3933454,"{'highway': 'residential', 'lanes': '2', 'lanes:bus:backward': '1', 'lanes:forward': '1', 'maxspeed': '30', 'name': 'Via Enrico Fermi', 'name:etymology:wikidata': 'Q8753', 'oneway': 'yes', 'oneway:psv': 'no', 'surface': 'asphalt'}",Via Enrico Fermi
43.716538,10.3931771,"{'highway': 'residential', 'lanes': '2', 'lanes:bus:backward': '1', 'lanes:forward': '1', 'maxspeed': '30', 'name': 'Via Enrico Fermi', 'name:etymology:wikidata': 'Q8753', 'oneway': 'yes', 'oneway:psv': 'no', 'surface': 'asphalt'}",Via Enrico Fermi
43.7165565,10.3930862,"{'highway': 'residential', 'lanes': '2', 'lanes:bus:backward': '1', 'lanes:forward': '1', 'maxspeed': '30', 'name': 'Via Enrico Fermi', 'name:etymology:wikidata': 'Q8753', 'oneway': 'yes', 'oneway:psv': 'no', 'surface': 'asphalt'}",Via Enrico Fermi
43.7165863,10.392979,"{'highway': 'residential', 'lanes': '2', 'lanes:bus:backward': '1', 'lanes:forward': '1', 'maxspeed': '30', 'name': 'Via Enrico Fermi', 'name:etymology:wikidata': 'Q8753', 'oneway': 'yes', 'oneway:psv': 'no', 'surface': 'asphalt'}",Via Enrico Fermi
43.7166298,10.3928432,"{'highway': 'residential', 'lanes': '2', 'lanes:bus:backward': '1', 'lanes:forward': '1', 'maxspeed': '30', 'name': 'Via Enrico Fermi', 'name:etymology:wikidata': 'Q8753', 'oneway': 'yes', 'oneway:psv': 'no', 'surface': 'asphalt'}",Via Enrico Fermi
43.7167206,10.3925574,"{'highway': 'residential', 'lanes': '2', 'lanes:bus:backward': '1', 'lanes:forward': '1', 'maxspeed': '30', 'name': 'Via Enrico Fermi', 'name:etymology:wikidata': 'Q8753', 'oneway': 'yes', 'oneway:psv': 'no', 'surface': 'asphalt'}",Via Enrico Fermi
43.7169896,10.3917525,"{'highway': 'residential', 'lanes': '2', 'lanes:bus:backward': '1', 'lanes:forward': '1', 'maxspeed': '30', 'name': 'Via Enrico Fermi', 'name:etymology:wikidata': 'Q8753', 'oneway': 'yes', 'oneway:psv': 'no', 'surface': 'asphalt'}",Via Enrico Fermi
43.7170206,10.3916516,"{'highway': 'residential', 'lanes': '2', 'lanes:bus:backward': '1', 'lanes:forward': '1', 'maxspeed': '30', 'name': 'Via Enrico Fermi', 'name:etymology:wikidata': 'Q8753', 'oneway': 'yes', 'oneway:psv': 'no', 'surface': 'asphalt'}",Via Enrico Fermi
43.7190802,10.3896131,"{'cycleway': 'no', 'highway': 'unclassified', 'lanes': '3', 'lanes:backward': '1', 'lanes:forward': '2', 'maxspeed': 'IT:urban', 'name': 'Via Carlo Francesco Gabba', 'name:etymology:wikidata': 'Q2294066', 'oneway': 'no', 'surface': 'asphalt', 'turn:lanes:forward': 'left|through;right', 'width': '10', 'width:lanes:backward': '3.5', 'width:lanes:forward': '3|3.5'}",Via Carlo Francesco Gabba
43.7189994,10.3898823,"{'cycleway': 'no', 'highway': 'unclassified', 'lanes': '3', 'lanes:backward': '1', 'lanes:forward': '2', 'maxspeed': 'IT:urban', 'name': 'Via Carlo Francesco Gabba', 'name:etymology:wikidata': 'Q2294066', 'oneway': 'no', 'surface': 'asphalt', 'turn:lanes:forward': 'left|through;right', 'width': '10', 'width:lanes:backward': '3.5', 'width:lanes:forward': '3|3.5'}",Via Carlo Francesco Gabba
43.7189718,10.3899712,"{'cycleway': 'no', 'highway': 'unclassified', 'lanes': '3', 'lanes:backward': '1', 'lanes:forward': '2', 'maxspeed': 'IT:urban', 'name': 'Via Carlo Francesco Gabba', 'name:etymology:wikidata': 'Q2294066', 'oneway': 'no', 'surface': 'asphalt', 'turn:lanes:forward': 'left|through;right', 'width': '10', 'width:lanes:backward': '3.5', 'width:lanes:forward': '3|3.5'}",Via Carlo Francesco Gabba
43.7188109,10.390514,"{'highway': 'residential', 'lanes': '3', 'lanes:backward': '1', 'lanes:forward': '2', 'maxspeed': '30', 'name': 'Via Risorgimento', 'name:etymology:wikidata': 'Q51122', 'oneway': 'no', 'surface': 'asphalt', 'turn:lanes:forward': 'left|through;right'}",Via Risorgimento
43.7189481,10.3900438,"{'highway': 'residential', 'lanes': '3', 'lanes:backward': '1', 'lanes:forward': '2', 'maxspeed': '30', 'name': 'Via Risorgimento', 'name:etymology:wikidata': 'Q51122', 'oneway': 'no', 'surface': 'asphalt', 'turn:lanes:forward': 'left|through;right'}",Via Risorgimento
43.7189718,10.3899712,"{'highway': 'residential', 'lanes': '3', 'lanes:backward': '1', 'lanes:forward': '2', 'maxspeed': '30', 'name': 'Via Risorgimento', 'name:etymology:wikidata': 'Q51122', 'oneway': 'no', 'surface': 'asphalt', 'turn:lanes:forward': 'left|through;right'}",Via Risorgimento
43.71779,10.3951959,"{'highway': 'residential', 'lit': 'yes', 'maxspeed': '30', 'name': 'Via Roma', 'name:etymology:wikidata': 'Q220', 'oneway': 'yes', 'parking:condition:left': 'no_stopping', 'parking:lane:left': 'no', 'parking:lane:right': 'parallel', 'parking:lane:right:parallel': 'on_street', 'sidewalk': 'both', 'surface': 'asphalt'}",Via Roma
43.7178547,10.3952133,"{'highway': 'residential', 'lit': 'yes', 'maxspeed': '30', 'name': 'Via Roma', 'name:etymology:wikidata': 'Q220', 'oneway': 'yes', 'parking:condition:left': 'no_stopping', 'parking:lane:left': 'no', 'parking:lane:right': 'parallel', 'parking:lane:right:parallel': 'on_street', 'sidewalk': 'both', 'surface': 'asphalt'}",Via Roma
43.7184069,10.3953614,"{'highway': 'residential', 'lit': 'yes', 'maxspeed': '30', 'name': 'Via Roma', 'name:etymology:wikidata': 'Q220', 'oneway': 'yes', 'parking:condition:left': 'no_stopping', 'parking:lane:left': 'no', 'parking:lane:right': 'parallel', 'parking:lane:right:parallel': 'on_street', 'sidewalk': 'both', 'surface': 'asphalt'}",Via Roma
43.7185764,10.3954069,"{'highway': 'residential', 'lit': 'yes', 'maxspeed': '30', 'name': 'Via Roma', 'name:etymology:wikidata': 'Q220', 'oneway': 'yes', 'parking:condition:left': 'no_stopping', 'parking:lane:left': 'no', 'parking:lane:right': 'parallel', 'parking:lane:right:parallel': 'on_street', 'sidewalk': 'both', 'surface': 'asphalt'}",Via Roma
43.7186225,10.3954141,"{'highway': 'residential', 'lit': 'yes', 'maxspeed': '30', 'name': 'Via Roma', 'name:etymology:wikidata': 'Q220', 'oneway': 'yes', 'parking:condition:left': 'no_stopping', 'parking:lane:left': 'no', 'parking:lane:right': 'parallel', 'parking:lane:right:parallel': 'on_street', 'sidewalk': 'both', 'surface': 'asphalt'}",Via Roma
43.7189753,10.3954731,"{'highway': 'residential', 'lit': 'yes', 'maxspeed': '30', 'name': 'Via Roma', 'name:etymology:wikidata': 'Q220', 'oneway': 'yes', 'parking:condition:left': 'no_stopping', 'parking:lane:left': 'no', 'parking:lane:right': 'parallel', 'parking:lane:right:parallel': 'on_street', 'sidewalk': 'both', 'surface': 'asphalt'}",Via Roma
43.7197737,10.3956139,"{'highway': 'residential', 'lit': 'yes', 'maxspeed': '30', 'name': 'Via Roma', 'name:etymology:wikidata': 'Q220', 'oneway': 'yes', 'parking:condition:left': 'no_stopping', 'parking:lane:left': 'no', 'parking:lane:right': 'parallel', 'parking:lane:right:parallel': 'on_street', 'sidewalk': 'both', 'surface': 'asphalt'}",Via Roma
43.7217905,10.3894112,"{'highway': 'residential', 'lit': 'yes', 'maxspeed:type': 'IT:urban', 'name': 'Via Giunta Pisano', 'name:etymology:wikidata': 'Q975500', 'oneway': 'yes', 'parking:both': 'perpendicular', 'parking:both:motorcar': 'no', 'surface': 'asphalt'}",Via Giunta Pisano
43.7220627,10.3885506,"{'highway': 'residential', 'lit': 'yes', 'maxspeed:type': 'IT:urban', 'name': 'Via Giunta Pisano', 'name:etymology:wikidata': 'Q975500', 'oneway': 'yes', 'parking:both': 'perpendicular', 'parking:both:motorcar': 'no', 'surface': 'asphalt'}",Via Giunta Pisano
43.7220957,10.3884447,"{'highway': 'residential', 'lit': 'yes', 'maxspeed:type': 'IT:urban', 'name': 'Via Giunta Pisano', 'name:etymology:wikidata': 'Q975500', 'oneway': 'yes', 'parking:both': 'perpendicular', 'parking:both:motorcar': 'no', 'surface': 'asphalt'}",Via Giunta Pisano
43.7221479,10.3882131,"{'highway': 'residential', 'lit': 'yes', 'maxspeed:type': 'IT:urban', 'name': 'Via Giunta Pisano', 'name:etymology:wikidata': 'Q975500', 'oneway': 'yes', 'parking:both': 'perpendicular', 'parking:both:motorcar': 'no', 'surface': 'asphalt'}",Via Giunta Pisano
43.7161419,10.3952414,"{'cycleway:both': 'no', 'highway': 'residential', 'lit': 'yes', 'maxspeed:type': 'IT:urban', 'name': 'Piazza Vittorio Locchi', 'oneway': 'yes', 'sidewalk': 'none', 'surface': 'asphalt'}",Piazza Vittorio Locchi
43.716134,10.3953465,"{'cycleway:both': 'no', 'highway': 'residential', 'lit': 'yes', 'maxspeed:type': 'IT:urban', 'name': 'Piazza Vittorio Locchi', 'oneway': 'yes', 'sidewalk': 'none', 'surface': 'asphalt'}",Piazza Vittorio Locchi
43.7160936,10.3953677,"{'cycleway:both': 'no', 'highway': 'residential', 'lit': 'yes', 'maxspeed:type': 'IT:urban', 'name': 'Piazza Vittorio Locchi', 'oneway': 'yes', 'sidewalk': 'none', 'surface': 'asphalt'}",Piazza Vittorio Locchi
43.7198919,10.3929772,"{'bicycle': 'yes', 'highway': 'residential', 'lanes': '1', 'lit': 'yes', 'maxspeed': '30', 'name': 'Via Nicola Pisano', 'name:etymology:wikidata': 'Q364413', 'oneway': 'yes', 'surface': 'asphalt'}",Via Nicola Pisano
43.7198387,10.3929725,"{'bicycle': 'yes', 'highway': 'residential', 'lanes': '1', 'lit': 'yes', 'maxspeed': '30', 'name': 'Via Nicola Pisano', 'name:etymology:wikidata': 'Q364413', 'oneway': 'yes', 'surface': 'asphalt'}",Via Nicola Pisano
43.7193247,10.3929429,"{'bicycle': 'yes', 'highway': 'residential', 'lanes': '1', 'lit': 'yes', 'maxspeed': '30', 'name': 'Via Nicola Pisano', 'name:etymology:wikidata': 'Q364413', 'oneway': 'yes', 'surface': 'asphalt'}",Via Nicola Pisano
43.7190158,10.392886,"{'bicycle': 'yes', 'highway': 'residential', 'lanes': '1', 'lit': 'yes', 'maxspeed': '30', 'name': 'Via Nicola Pisano', 'name:etymology:wikidata': 'Q364413', 'oneway': 'yes', 'surface': 'asphalt'}",Via Nicola Pisano
43.7188201,10.392838,"{'bicycle': 'yes', 'highway': 'residential', 'lanes': '1', 'lit': 'yes', 'maxspeed': '30', 'name': 'Via Nicola Pisano', 'name:etymology:wikidata': 'Q364413', 'oneway': 'yes', 'surface': 'asphalt'}",Via Nicola Pisano
43.7181988,10.3925435,"{'bicycle': 'yes', 'highway': 'residential', 'lanes': '1', 'lit': 'yes', 'maxspeed': '30', 'name': 'Via Nicola Pisano', 'name:etymology:wikidata': 'Q364413', 'oneway': 'yes', 'surface': 'asphalt'}",Via Nicola Pisano
43.7181988,10.3925435,"{'bicycle': 'yes', 'highway': 'residential', 'maxspeed': '30', 'name': 'Via Nicola Pisano', 'name:etymology:wikidata': 'Q364413', 'oneway': 'yes', 'surface': 'asphalt', 'width': '5'}",Via Nicola Pisano
43.7181357,10.3925094,"{'bicycle': 'yes', 'highway': 'residential', 'maxspeed': '30', 'name': 'Via Nicola Pisano', 'name:etymology:wikidata': 'Q364413', 'oneway': 'yes', 'surface': 'asphalt', 'width': '5'}",Via Nicola Pisano
43.7180322,10.3924376,"{'bicycle': 'yes', 'highway': 'residential', 'maxspeed': '30', 'name': 'Via Nicola Pisano', 'name:etymology:wikidata': 'Q364413', 'oneway': 'yes', 'surface': 'asphalt', 'width': '5'}",Via Nicola Pisano
43.717573,10.3920029,"{'bicycle': 'yes', 'highway': 'residential', 'maxspeed': '30', 'name': 'Via Nicola Pisano', 'name:etymology:wikidata': 'Q364413', 'oneway': 'yes', 'surface': 'asphalt', 'width': '5'}",Via Nicola Pisano
43.7175225,10.3919608,"{'bicycle': 'yes', 'highway': 'residential', 'maxspeed': '30', 'name': 'Via Nicola Pisano', 'name:etymology:wikidata': 'Q364413', 'oneway': 'yes', 'surface': 'asphalt', 'width': '5'}",Via Nicola Pisano
43.717472,10.3919227,"{'bicycle': 'yes', 'highway': 'residential', 'maxspeed': '30', 'name': 'Via Nicola Pisano', 'name:etymology:wikidata': 'Q364413', 'oneway': 'yes', 'surface': 'asphalt', 'width': '5'}",Via Nicola Pisano
43.7171056,10.3917025,"{'bicycle': 'yes', 'highway': 'residential', 'maxspeed': '30', 'name': 'Via Nicola Pisano', 'name:etymology:wikidata': 'Q364413', 'oneway': 'yes', 'surface': 'asphalt', 'width': '5'}",Via Nicola Pisano
43.7170206,10.3916516,"{'bicycle': 'yes', 'highway': 'residential', 'maxspeed': '30', 'name': 'Via Nicola Pisano', 'name:etymology:wikidata': 'Q364413', 'oneway': 'yes', 'surface': 'asphalt', 'width': '5'}",Via Nicola Pisano
43.7163498,10.394785,"{'highway': 'residential', 'lit': 'yes', 'maxspeed': '30', 'name': 'Via Roma', 'name:etymology:wikidata': 'Q220', 'oneway': 'yes', 'parking:condition:left': 'no_stopping', 'parking:lane:left': 'no', 'parking:lane:right': 'parallel', 'parking:lane:right:parallel': 'on_street', 'sidewalk': 'both', 'smoothness': 'intermediate', 'surface': 'asphalt'}",Via Roma
43.7169278,10.3949365,"{'highway': 'residential', 'lit': 'yes', 'maxspeed': '30', 'name': 'Via Roma', 'name:etymology:wikidata': 'Q220', 'oneway': 'yes', 'parking:condition:left': 'no_stopping', 'parking:lane:left': 'no', 'parking:lane:right': 'parallel', 'parking:lane:right:parallel': 'on_street', 'sidewalk': 'both', 'smoothness': 'intermediate', 'surface': 'asphalt'}",Via Roma
43.7169822,10.3949529,"{'highway': 'residential', 'lit': 'yes', 'maxspeed': '30', 'name': 'Via Roma', 'name:etymology:wikidata': 'Q220', 'oneway': 'yes', 'parking:condition:left': 'no_stopping', 'parking:lane:left': 'no', 'parking:lane:right': 'parallel', 'parking:lane:right:parallel': 'on_street', 'sidewalk': 'both', 'smoothness': 'intermediate', 'surface': 'asphalt'}",Via Roma
43.7177484,10.3951834,"{'highway': 'residential', 'lit': 'yes', 'maxspeed': '30', 'name': 'Via Roma', 'name:etymology:wikidata': 'Q220', 'oneway': 'yes', 'parking:condition:left': 'no_stopping', 'parking:lane:left': 'no', 'parking:lane:right': 'parallel', 'parking:lane:right:parallel': 'on_street', 'sidewalk': 'both', 'smoothness': 'intermediate', 'surface': 'asphalt'}",Via Roma
43.71779,10.3951959,"{'highway': 'residential', 'lit': 'yes', 'maxspeed': '30', 'name': 'Via Roma', 'name:etymology:wikidata': 'Q220', 'oneway': 'yes', 'parking:condition:left': 'no_stopping', 'parking:lane:left': 'no', 'parking:lane:right': 'parallel', 'parking:lane:right:parallel': 'on_street', 'sidewalk': 'both', 'smoothness': 'intermediate', 'surface': 'asphalt'}",Via Roma
43.7161567,10.394714,"{'highway': 'residential', 'maxspeed': '30', 'name': 'Via Roma', 'oneway': 'yes', 'surface': 'asphalt'}",Via Roma
43.716231,10.39474,"{'highway': 'residential', 'maxspeed': '30', 'name': 'Via Roma', 'oneway': 'yes', 'surface': 'asphalt'}",Via Roma
43.7162838,10.3947253,"{'highway': 'residential', 'maxspeed': '30', 'name': 'Via Roma', 'oneway': 'yes', 'surface': 'asphalt'}",Via Roma
43.7163042,10.3947127,"{'highway': 'residential', 'maxspeed': '30', 'name': 'Via Roma', 'oneway': 'yes', 'surface': 'asphalt'}",Via Roma
43.7163302,10.3946884,"{'highway': 'residential', 'maxspeed': '30', 'name': 'Via Roma', 'oneway': 'yes', 'surface': 'asphalt'}",Via Roma
43.7163478,10.3946534,"{'highway': 'residential', 'maxspeed': '30', 'name': 'Via Roma', 'oneway': 'yes', 'surface': 'asphalt'}",Via Roma
43.7163698,10.3945476,"{'highway': 'residential', 'maxspeed': '30', 'name': 'Via Roma', 'oneway': 'yes', 'surface': 'asphalt'}",Via Roma
43.722951,10.3897496,"{'highway': 'residential', 'name': 'Via Vecchia Barbaricina', 'source': 'PCN aerial 2006;Bing aerial', 'surface': 'asphalt'}",Via Vecchia Barbaricina
43.7228964,10.3896213,"{'highway': 'residential', 'name': 'Via Vecchia Barbaricina', 'source': 'PCN aerial 2006;Bing aerial', 'surface': 'asphalt'}",Via Vecchia Barbaricina
43.7228368,10.3895119,"{'highway': 'residential', 'name': 'Via Vecchia Barbaricina', 'source': 'PCN aerial 2006;Bing aerial', 'surface': 'asphalt'}",Via Vecchia Barbaricina
43.7228531,10.3898198,"{'highway': 'residential', 'oneway': 'yes'}",N/A
43.7228722,10.3897919,"{'highway': 'residential', 'oneway': 'yes'}",N/A
43.722901,10.3897675,"{'highway': 'residential', 'oneway': 'yes'}",N/A
43.722951,10.3897496,"{'highway': 'residential', 'oneway': 'yes'}",N/A
